<?xml version="1.0" encoding="utf-8" ?>
<kml xmlns="http://www.opengis.net/kml/2.2">
<Document id="root_doc">
<Schema name="1388614_final" id="1388614_final">
	<SimpleField name="ID" type="float"></SimpleField>
	<SimpleField name="N" type="float"></SimpleField>
	<SimpleField name="E" type="float"></SimpleField>
	<SimpleField name="new_ID" type="string"></SimpleField>
	<SimpleField name="basal" type="float"></SimpleField>
	<SimpleField name="other" type="float"></SimpleField>
	<SimpleField name="stand" type="float"></SimpleField>
	<SimpleField name="comments" type="string"></SimpleField>
</Schema>
<Folder><name>1388614_final</name>
  <Placemark>
	<ExtendedData><SchemaData schemaUrl="#1388614_final">
		<SimpleData name="ID">5</SimpleData>
		<SimpleData name="N">6239458</SimpleData>
		<SimpleData name="E">464640</SimpleData>
		<SimpleData name="new_ID">A1</SimpleData>
		<SimpleData name="basal">32</SimpleData>
		<SimpleData name="other">5</SimpleData>
		<SimpleData name="stand">1388614</SimpleData>
		<SimpleData name="comments">dummy</SimpleData>
	</SchemaData></ExtendedData>
      <Point><coordinates>14.4286243704714,56.2985779864518</coordinates></Point>
  </Placemark>
  <Placemark>
	<ExtendedData><SchemaData schemaUrl="#1388614_final">
		<SimpleData name="ID">6</SimpleData>
		<SimpleData name="N">6239503</SimpleData>
		<SimpleData name="E">464762</SimpleData>
		<SimpleData name="new_ID">A2</SimpleData>
		<SimpleData name="basal">35</SimpleData>
		<SimpleData name="other">6</SimpleData>
		<SimpleData name="stand">1388614</SimpleData>
		<SimpleData name="comments">dummy</SimpleData>
	</SchemaData></ExtendedData>
      <Point><coordinates>14.4305896237637,56.2989913472647</coordinates></Point>
  </Placemark>
  <Placemark>
	<ExtendedData><SchemaData schemaUrl="#1388614_final">
		<SimpleData name="ID">7</SimpleData>
		<SimpleData name="N">6239450</SimpleData>
		<SimpleData name="E">464843</SimpleData>
		<SimpleData name="new_ID">A3</SimpleData>
		<SimpleData name="basal">40</SimpleData>
		<SimpleData name="other">7</SimpleData>
		<SimpleData name="stand">1388614</SimpleData>
		<SimpleData name="comments">dummy</SimpleData>
	</SchemaData></ExtendedData>
      <Point><coordinates>14.4319054933373,56.2985212017334</coordinates></Point>
  </Placemark>
  <Placemark>
	<ExtendedData><SchemaData schemaUrl="#1388614_final">
		<SimpleData name="ID">8</SimpleData>
		<SimpleData name="N">6239543</SimpleData>
		<SimpleData name="E">464902</SimpleData>
		<SimpleData name="new_ID">A4</SimpleData>
		<SimpleData name="basal">36</SimpleData>
		<SimpleData name="other">6</SimpleData>
		<SimpleData name="stand">1388614</SimpleData>
		<SimpleData name="comments">dummy</SimpleData>
	</SchemaData></ExtendedData>
      <Point><coordinates>14.4328464338211,56.2993610887522</coordinates></Point>
  </Placemark>
  <Placemark>
	<ExtendedData><SchemaData schemaUrl="#1388614_final">
		<SimpleData name="ID">9</SimpleData>
		<SimpleData name="N">6239567</SimpleData>
		<SimpleData name="E">464726</SimpleData>
		<SimpleData name="new_ID">A5</SimpleData>
		<SimpleData name="basal">30</SimpleData>
		<SimpleData name="other">6</SimpleData>
		<SimpleData name="stand">1388614</SimpleData>
		<SimpleData name="comments">dummy</SimpleData>
	</SchemaData></ExtendedData>
      <Point><coordinates>14.4299993735193,56.2995636516917</coordinates></Point>
  </Placemark>
  <Placemark>
	<ExtendedData><SchemaData schemaUrl="#1388614_final">
		<SimpleData name="ID">10</SimpleData>
		<SimpleData name="N">6239572</SimpleData>
		<SimpleData name="E">464675</SimpleData>
		<SimpleData name="new_ID">A6</SimpleData>
		<SimpleData name="basal">33</SimpleData>
		<SimpleData name="other">1</SimpleData>
		<SimpleData name="stand">1388614</SimpleData>
		<SimpleData name="comments">dummy</SimpleData>
	</SchemaData></ExtendedData>
      <Point><coordinates>14.4291746293213,56.2996047769116</coordinates></Point>
  </Placemark>
</Folder>
</Document></kml>
