<?xml version="1.0" encoding="utf-8" ?>
<kml xmlns="http://www.opengis.net/kml/2.2">
<Document id="root_doc">
<Schema name="final_stands" id="final_stands">
	<SimpleField name="TIDPUNKT" type="string"></SimpleField>
	<SimpleField name="RO" type="string"></SimpleField>
	<SimpleField name="LAN" type="string"></SimpleField>
	<SimpleField name="PO" type="string"></SimpleField>
	<SimpleField name="SKIFTENAMN" type="string"></SimpleField>
	<SimpleField name="RESTR_UPPD" type="string"></SimpleField>
	<SimpleField name="INOMFORSAL" type="string"></SimpleField>
	<SimpleField name="FORSOKSPAR" type="string"></SimpleField>
	<SimpleField name="EKOPARK" type="string"></SimpleField>
	<SimpleField name="AVDOID" type="float"></SimpleField>
	<SimpleField name="N" type="float"></SimpleField>
	<SimpleField name="E" type="float"></SimpleField>
	<SimpleField name="FIGNETTO" type="float"></SimpleField>
	<SimpleField name="NVMALKL" type="string"></SimpleField>
	<SimpleField name="SI" type="string"></SimpleField>
	<SimpleField name="PROD_ALDER" type="float"></SimpleField>
	<SimpleField name="HTSL" type="string"></SimpleField>
	<SimpleField name="HTSL_ANDEL" type="float"></SimpleField>
	<SimpleField name="ANDEL_TALL" type="float"></SimpleField>
	<SimpleField name="ANDEL_GRAN" type="float"></SimpleField>
	<SimpleField name="ANDEL_BJOR" type="float"></SimpleField>
	<SimpleField name="NPATG" type="string"></SimpleField>
	<SimpleField name="PLANUAR" type="float"></SimpleField>
</Schema>
<Folder><name>final_stands</name>
  <Placemark>
	<Style><LineStyle><color>ff0000ff</color></LineStyle><PolyStyle><fill>0</fill></PolyStyle></Style>
	<ExtendedData><SchemaData schemaUrl="#final_stands">
		<SimpleData name="TIDPUNKT">2022-09-12 17:21:00</SimpleData>
		<SimpleData name="RO">Götaland</SimpleData>
		<SimpleData name="LAN">Kronobergs län</SimpleData>
		<SimpleData name="AVDOID">1436579</SimpleData>
		<SimpleData name="N">6310318</SimpleData>
		<SimpleData name="E">501473</SimpleData>
		<SimpleData name="FIGNETTO">2.47568914</SimpleData>
		<SimpleData name="NVMALKL">PG</SimpleData>
		<SimpleData name="SI">G27</SimpleData>
		<SimpleData name="PROD_ALDER">44</SimpleData>
		<SimpleData name="HTSL">Gran</SimpleData>
		<SimpleData name="HTSL_ANDEL">0.973461</SimpleData>
		<SimpleData name="ANDEL_TALL">0.026539</SimpleData>
		<SimpleData name="ANDEL_GRAN">0.973461</SimpleData>
		<SimpleData name="ANDEL_BJOR">0</SimpleData>
		<SimpleData name="NPATG">G kval</SimpleData>
		<SimpleData name="PLANUAR">0</SimpleData>
	</SchemaData></ExtendedData>
      <MultiGeometry><Polygon><outerBoundaryIs><LinearRing><coordinates>15.0247846569135,56.9384041459423 15.0249199017214,56.9384214638838 15.0249145794736,56.9382922058555 15.0249642025658,56.9381626892175 15.0247629430758,56.9381158954601 15.0247622111485,56.9381061702581 15.0246842102894,56.9379081162389 15.0245801268216,56.9373866116397 15.0246385999526,56.9369469414415 15.0247241099555,56.9367858321643 15.0249714344121,56.9367424749364 15.0251519268477,56.9367525816091 15.0252997599491,56.9367535047477 15.0253008851271,56.936699631074 15.0253737089828,56.9363588400522 15.0253787740174,56.9361164022229 15.0251736975955,56.9357110093534 15.0251740727024,56.9356930461614 15.0251576370658,56.935692944049 15.0248112202025,56.9357626259818 15.024219350159,56.935785863975 15.0235789638754,56.9357728783815 15.0232821759351,56.9358249023625 15.023165899377,56.9358870410314 15.0230465980505,56.9360928398982 15.0230462219125,56.9361107955536 15.0230460330785,56.9361197738001 15.0232250177885,56.9362017192623 15.0232567338428,56.9362557993305 15.023220126031,56.9364351720625 15.0231538555666,56.9364617014881 15.0231374333715,56.9364615982714 15.0231366811813,56.9364975171107 15.0231368299475,56.9364980165693 15.0231114713,56.936532706719 15.0230902360146,56.9366025065868 15.0230902887186,56.936687811709 15.0231470694355,56.9367459633829 15.0232191885899,56.9367738693957 15.0232198189365,56.9367759785011 15.0233833052969,56.9369126986232 15.0234973189006,56.9369542183132 15.0236797093011,56.9369708008379 15.0238773163946,56.937016458348 15.0240673303306,56.9370704258877 15.0241205677134,56.9371368816595 15.0241282069506,56.9371991921918 15.0242498185877,56.9372365557063 15.0242726534422,56.9372947084218 15.0242726993092,56.9373653292975 15.0242173915063,56.9374609845978 15.0241156975101,56.9375992331965 15.0240992610376,56.9375991301088 15.0240985097475,56.9376350489472 15.0240139473327,56.9377512615274 15.0235782195656,56.9381616270661 15.0235609495173,56.9382089568815 15.0247724373613,56.938402584644 15.0247846569135,56.9384041459423</coordinates></LinearRing></outerBoundaryIs></Polygon><Polygon><outerBoundaryIs><LinearRing><coordinates>15.0249199017214,56.9384214638838 15.0247533838768,56.9385281862754 15.0247423795043,56.9385334769863 15.0245874289801,56.9386079745456 15.0241190364112,56.9390091584459 15.0245291396157,56.9390386663585 15.024592184568,56.939047698281 15.0245946490577,56.9390480550507 15.0248619794755,56.9390779914634 15.0248952529938,56.9390066452877 15.0248555658074,56.9388839719323 15.0248423006027,56.9387901606254 15.0248884208533,56.9386602540028 15.0249213492245,56.9385447832259 15.0249199017214,56.9384214638838</coordinates></LinearRing></outerBoundaryIs></Polygon></MultiGeometry>
  </Placemark>
  <Placemark>
	<Style><LineStyle><color>ff0000ff</color></LineStyle><PolyStyle><fill>0</fill></PolyStyle></Style>
	<ExtendedData><SchemaData schemaUrl="#final_stands">
		<SimpleData name="TIDPUNKT">2022-09-12 17:21:00</SimpleData>
		<SimpleData name="RO">Götaland</SimpleData>
		<SimpleData name="LAN">Kronobergs län</SimpleData>
		<SimpleData name="AVDOID">2159091</SimpleData>
		<SimpleData name="N">6288165</SimpleData>
		<SimpleData name="E">504283</SimpleData>
		<SimpleData name="FIGNETTO">3.67218542</SimpleData>
		<SimpleData name="NVMALKL">PG</SimpleData>
		<SimpleData name="SI">G30</SimpleData>
		<SimpleData name="PROD_ALDER">26</SimpleData>
		<SimpleData name="HTSL">Gran</SimpleData>
		<SimpleData name="HTSL_ANDEL">0.97046</SimpleData>
		<SimpleData name="ANDEL_TALL">0</SimpleData>
		<SimpleData name="ANDEL_GRAN">0.97046</SimpleData>
		<SimpleData name="ANDEL_BJOR">0.02954</SimpleData>
		<SimpleData name="NPATG">G kval</SimpleData>
		<SimpleData name="PLANUAR">0</SimpleData>
	</SchemaData></ExtendedData>
      <MultiGeometry><Polygon><outerBoundaryIs><LinearRing><coordinates>15.0707142671456,56.7379878733932 15.0707847136789,56.7377278534865 15.0709173343286,56.7376298496253 15.0708876430252,56.7374770052469 15.0706608517107,56.7373768803292 15.0706622560591,56.7373050473378 15.0708438967451,56.7372073320239 15.0709273315964,56.7371180174792 15.0709478767339,56.7369026070841 15.0706241246381,56.7367480278217 15.0702829745613,56.7366472273001 15.0702128544057,56.7366078520943 15.0699706359382,56.7366311436155 15.0697715708575,56.736528383507 15.0698643230496,56.736413370587 15.0697977752282,56.7363929064854 15.0697340120365,56.7363117022353 15.0697891677778,56.7359977099103 15.0698564893276,56.7359055001012 15.0697700462002,56.7357054059367 15.0695031895335,56.7354290453449 15.0693834877442,56.7354168721023 15.0688595563398,56.7353635710057 15.0687453703248,56.7353539234131 15.0687480902265,56.7353461666476 15.0686812429132,56.7352302267507 15.0685402469742,56.7348895403472 15.068539903187,56.7347006296445 15.067872199218,56.7346033659226 15.0678723763667,56.7345943873205 15.0678233707596,56.7345940968849 15.0673025492949,56.7344922244707 15.0672371959841,56.7344918372056 15.067220860322,56.7344917405923 15.067231380109,56.7347881552767 15.0672468339852,56.7348331507466 15.0673926306617,56.7348968703602 15.0677017911144,56.7349615780163 15.0680734778035,56.7351703318913 15.0681836132042,56.7353865163613 15.0681804456042,56.7355481462267 15.0683415251324,56.7356658512188 15.0684672826186,56.7359180521507 15.0689714276998,56.7360377796565 15.0692790316787,56.7361832882725 15.0692744617587,56.7364167519678 15.0690945788062,56.7364246748229 15.0689139911716,56.7364685034517 15.0683866180455,56.7366988806165 15.0683031887513,56.7367881934624 15.0682178005804,56.7369762817215 15.0681984717455,56.7371288364624 15.0683103734895,56.7372552238968 15.0686829649404,56.7374190770279 15.0689090481707,56.7375551249576 15.0688881402212,56.737788492193 15.0688718031235,56.7377883957955 15.0688712754046,56.737815337446 15.0689334440532,56.7379773536877 15.0690634583421,56.7380140466505 15.0695491993327,56.738241428602 15.069907402886,56.7383064004206 15.0701684514474,56.7383259142764 15.0704799276713,56.7382738706236 15.0706123882234,56.738184844851 15.0707142671456,56.7379878733932</coordinates></LinearRing></outerBoundaryIs></Polygon></MultiGeometry>
  </Placemark>
  <Placemark>
	<Style><LineStyle><color>ff0000ff</color></LineStyle><PolyStyle><fill>0</fill></PolyStyle></Style>
	<ExtendedData><SchemaData schemaUrl="#final_stands">
		<SimpleData name="TIDPUNKT">2022-09-12 17:21:00</SimpleData>
		<SimpleData name="RO">Götaland</SimpleData>
		<SimpleData name="LAN">Blekinge län</SimpleData>
		<SimpleData name="AVDOID">1388614</SimpleData>
		<SimpleData name="N">6239536</SimpleData>
		<SimpleData name="E">464661</SimpleData>
		<SimpleData name="FIGNETTO">15.62345195</SimpleData>
		<SimpleData name="NVMALKL">PF</SimpleData>
		<SimpleData name="SI">G26</SimpleData>
		<SimpleData name="PROD_ALDER">33</SimpleData>
		<SimpleData name="HTSL">Gran</SimpleData>
		<SimpleData name="HTSL_ANDEL">0.766622</SimpleData>
		<SimpleData name="ANDEL_TALL">0.051296</SimpleData>
		<SimpleData name="ANDEL_GRAN">0.766622</SimpleData>
		<SimpleData name="ANDEL_BJOR">0.158928</SimpleData>
		<SimpleData name="NPATG">G kval</SimpleData>
		<SimpleData name="PLANUAR">0</SimpleData>
	</SchemaData></ExtendedData>
      <MultiGeometry><Polygon><outerBoundaryIs><LinearRing><coordinates>14.4289969193474,56.3023062896485 14.4288144522927,56.3019898900002 14.4289181175622,56.3018024293554 14.4287789364371,56.301630221878 14.4286681719568,56.3015661178676 14.4285935661111,56.3013946355969 14.4286152050094,56.3012421851437 14.4285399663316,56.3010886568461 14.4283965877501,56.3010331705501 14.4283533189759,56.3008889789933 14.4281627829064,56.3007970387464 14.4277474935155,56.300666673457 14.4277368433745,56.3005138639228 14.4278740954578,56.3002908412002 14.4280226550429,56.3002026747727 14.4280388008944,56.3002028547624 14.4280391247208,56.3001938710938 14.4279787425232,56.3000764437209 14.4279703533909,56.2998607869772 14.4278812242904,56.2996442259669 14.4279322482147,56.2995729418019 14.4279816668309,56.2995465425551 14.4280294575167,56.2995650431861 14.4283853126861,56.3000001285038 14.4287321351854,56.3002375175803 14.4290104898243,56.3005819258523 14.4292003814591,56.3006918187623 14.4292468818909,56.3007462260054 14.4294057734728,56.300819845151 14.4295820917828,56.3008577342338 14.4299799516122,56.3010238291051 14.4302557437766,56.300990963918 14.4304685620149,56.3009124961857 14.4305906214734,56.3006623598112 14.430468847834,56.3000053316846 14.4304927375767,56.2997900344273 14.43052633216,56.2997544783473 14.4306238524794,56.2997376006562 14.4309629282299,56.2997413671019 14.4311201828145,56.2998598747404 14.4313798537978,56.3002759225243 14.4317257319191,56.3005402275264 14.4320425443699,56.3007144094313 14.4320212408207,56.3008578768379 14.4321158626153,56.3009218050999 14.432064200579,56.3010110449645 14.432205973544,56.3011114186653 14.4322705706306,56.3011121356541 14.4323716392677,56.3009964946615 14.4323903627853,56.3009248506376 14.4325030648958,56.3009350818654 14.4325550485801,56.3008368581336 14.4326861642797,56.3007844213525 14.4326922858437,56.3006138300832 14.4328556806112,56.300561751826 14.4330158671617,56.3005994575555 14.4330672039692,56.3005191875788 14.4332170290508,56.3003951060433 14.4335457586088,56.3002370784782 14.4337252980056,56.3001851775053 14.4337007307871,56.299969335982 14.4335511839251,56.2996353543969 14.4335582656957,56.2994378312148 14.4334859083298,56.2992034986597 14.4334848942739,56.2987813428487 14.4333950930283,56.2985827397048 14.4332992957602,56.2985490626919 14.4333030811802,56.2984918780432 14.4329474444623,56.2982630925906 14.4327421969203,56.2979110895569 14.4324366387468,56.297583672533 14.4323723131299,56.2973768210388 14.4323063530905,56.2973548758457 14.4323059144766,56.2973671039694 14.4320614502278,56.2974272627675 14.4319636015096,56.2974531252389 14.4317498249541,56.2975585340745 14.4316190298885,56.2976019920298 14.431520213266,56.2976547859609 14.4312118095654,56.2976962717675 14.4310303208154,56.2978020376635 14.4309960959482,56.2978555479334 14.4309909349817,56.2979992015195 14.4310471313944,56.2982333500963 14.4311220636524,56.2983958539939 14.4309890187326,56.2985021644705 14.4308582196781,56.2985456149133 14.4306150470913,56.2985698629234 14.430165175435,56.298501992635 14.4297479190218,56.2984254965735 14.4295076404442,56.298368935266 14.4293487573001,56.2982953162354 14.4292389462639,56.2982042749623 14.4291294697322,56.298104256659 14.4289696074093,56.2980575688746 14.4287926328584,56.2980376394807 14.4285310550526,56.2981245490825 14.4282203695933,56.2982288737658 14.4280656780435,56.2984876248515 14.4280618008999,56.2985953636742 14.4280417649837,56.2987029216099 14.4279258255359,56.2987824711271 14.4278794394912,56.2987904931362 14.4278796406313,56.2987909308564 14.4278076244774,56.2989967181235 14.4277214005542,56.2991484492149 14.4275056747604,56.2993077201027 14.4274081540791,56.2993246020325 14.4270377619227,56.2992935288478 14.4261015997132,56.2992741112494 14.4260693073093,56.2992737507565 14.4260047254887,56.2992730314324 14.4256659651938,56.2992602743914 14.4252271171273,56.2993362200399 14.4249984744032,56.2994055222622 14.4246816495673,56.299680429026 14.4243722862211,56.2997488221154 14.4241749581457,56.2998454347131 14.4242201549286,56.2999357525372 14.4242188593624,56.2999716670977 14.4242511508299,56.2999720280671 14.4243787103854,56.3000183542477 14.4245882836239,56.3000296804551 14.4248275707611,56.3001131829309 14.424855002492,56.3002482191693 14.4249318456381,56.3003568573302 14.4250594071878,56.3004031903409 14.4253438857302,56.3005770159584 14.4254055684443,56.3006585434703 14.4253984428593,56.3008560652148 14.4253299597406,56.3009630833158 14.4251545546013,56.3010567826438 14.4251487862432,56.3010598636126 14.4251484633365,56.301068840584 14.4251481389236,56.3010778175483 14.4253228352044,56.3011606050523 14.4256050653331,56.301397276417 14.4257878274216,56.3017046962659 14.4257858408085,56.3022076586855 14.4257138069601,56.3024134378917 14.4257121868965,56.3024583294141 14.4257767755767,56.3024590497448 14.4259059514498,56.302460489462 14.4261501107122,56.3024093198105 14.426137199959,56.302319363193 14.4262192289572,56.3022843472863 14.4266380911602,56.3023159568061 14.4270282169883,56.3022484496124 14.4275607648502,56.3022633604204 14.4279915715477,56.3024118669776 14.428339706671,56.3026133416787 14.4284333571514,56.3027042036556 14.4286419891473,56.3027424473178 14.4288683728597,56.3027359780533 14.4289710812564,56.3025754550611 14.4289969193474,56.3023062896485</coordinates></LinearRing></outerBoundaryIs></Polygon></MultiGeometry>
  </Placemark>
  <Placemark>
	<Style><LineStyle><color>ff0000ff</color></LineStyle><PolyStyle><fill>0</fill></PolyStyle></Style>
	<ExtendedData><SchemaData schemaUrl="#final_stands">
		<SimpleData name="TIDPUNKT">2022-09-12 17:21:00</SimpleData>
		<SimpleData name="RO">Götaland</SimpleData>
		<SimpleData name="LAN">Kronobergs län</SimpleData>
		<SimpleData name="AVDOID">1433401</SimpleData>
		<SimpleData name="N">6327569</SimpleData>
		<SimpleData name="E">496877</SimpleData>
		<SimpleData name="FIGNETTO">7.77875545</SimpleData>
		<SimpleData name="NVMALKL">PG</SimpleData>
		<SimpleData name="SI">G32</SimpleData>
		<SimpleData name="PROD_ALDER">24</SimpleData>
		<SimpleData name="HTSL">Gran</SimpleData>
		<SimpleData name="HTSL_ANDEL">0.980382</SimpleData>
		<SimpleData name="ANDEL_TALL">0</SimpleData>
		<SimpleData name="ANDEL_GRAN">0.980382</SimpleData>
		<SimpleData name="ANDEL_BJOR">0.019618</SimpleData>
		<SimpleData name="NPATG">G kval</SimpleData>
		<SimpleData name="PLANUAR">0</SimpleData>
	</SchemaData></ExtendedData>
      <MultiGeometry><Polygon><outerBoundaryIs><LinearRing><coordinates>14.9484849285094,57.093098086015 14.9484860663364,57.0930811035234 14.9484903712478,57.0930811329016 14.9485586319981,57.0929828180579 14.948575124641,57.0929829310773 14.9485757459538,57.0929559990476 14.948643592586,57.0928756391206 14.9487937018348,57.0928048278934 14.9488112291307,57.0927600463531 14.9487291723555,57.0927415205629 14.9484688977439,57.0925876761865 14.9484221839157,57.0925849797271 14.9484224831857,57.0923694194861 14.9490959781909,57.0921325791871 14.9496239715653,57.0921184214908 14.94963034236,57.0922031681835 14.9497794717065,57.0922637790168 14.9498112124641,57.0923178763381 14.9499268861907,57.0923096875425 14.9502604798124,57.0921503249081 14.9504763541062,57.0920889398971 14.9504928463565,57.0920890526643 14.9505093370724,57.0920891654286 14.9507089147221,57.0920186826497 14.950893861355,57.0918672831717 14.950910351972,57.0918673958833 14.950910766065,57.091849440907 14.9510115867725,57.0917693051007 14.9510280788854,57.0917694169602 14.9510282859023,57.0917604398904 14.9510614863481,57.0917516873737 14.9510944690186,57.0917519127514 14.9510952970324,57.0917159961042 14.9511288991126,57.0916892885883 14.9511907864209,57.0911509003022 14.9512792457638,57.0908910808811 14.9512574104282,57.0904060024557 14.9510251143683,57.089748867959 14.9510255283816,57.0897309129762 14.9510090371747,57.0897308002792 14.9509754244852,57.0897575077667 14.9508265847955,57.0897744575402 14.9501769558346,57.0900484033048 14.9498136993872,57.0900638876922 14.9496001258925,57.0900265054103 14.9493855050364,57.0900340181487 14.9492364560746,57.0900599431028 14.9488016299382,57.0903173921679 14.948484951775,57.0904589031714 14.9483358881883,57.0904848262111 14.9479402684491,57.0904731394966 14.947758430696,57.0904898527187 14.9475759692353,57.0905335044051 14.9470580345859,57.0908173211831 14.9466928875607,57.0909135993049 14.9463267347702,57.0910547708962 14.9460929134476,57.0911788849069 14.9456281887685,57.0913014135106 14.9453972885306,57.0912998281188 14.9450041458036,57.0911803881536 14.9449876539736,57.0911802746644 14.9449711636772,57.0911801620102 14.944851964642,57.0913409830407 14.9447807823315,57.0915650006662 14.9447256504947,57.0916473980004 14.9453955001734,57.0918233316485 14.9460216758857,57.092111644706 14.9460715881934,57.0923264836275 14.9461789163629,57.0923593185199 14.9463552481037,57.0925362698911 14.9467029700069,57.0928093001293 14.9470507741848,57.0930292680295 14.9476215071437,57.0931583687732 14.9478999925065,57.0931660647729 14.9484849285094,57.093098086015</coordinates></LinearRing></outerBoundaryIs></Polygon></MultiGeometry>
  </Placemark>
  <Placemark>
	<Style><LineStyle><color>ff0000ff</color></LineStyle><PolyStyle><fill>0</fill></PolyStyle></Style>
	<ExtendedData><SchemaData schemaUrl="#final_stands">
		<SimpleData name="TIDPUNKT">2022-09-12 17:21:00</SimpleData>
		<SimpleData name="RO">Götaland</SimpleData>
		<SimpleData name="LAN">Kronobergs län</SimpleData>
		<SimpleData name="AVDOID">1436613</SimpleData>
		<SimpleData name="N">6309450</SimpleData>
		<SimpleData name="E">501262</SimpleData>
		<SimpleData name="FIGNETTO">6.26863296</SimpleData>
		<SimpleData name="NVMALKL">PG</SimpleData>
		<SimpleData name="SI">G26</SimpleData>
		<SimpleData name="PROD_ALDER">44</SimpleData>
		<SimpleData name="HTSL">Gran</SimpleData>
		<SimpleData name="HTSL_ANDEL">1</SimpleData>
		<SimpleData name="ANDEL_TALL">0</SimpleData>
		<SimpleData name="ANDEL_GRAN">1</SimpleData>
		<SimpleData name="ANDEL_BJOR">0</SimpleData>
		<SimpleData name="NPATG">G kval</SimpleData>
		<SimpleData name="PLANUAR">0</SimpleData>
	</SchemaData></ExtendedData>
      <MultiGeometry><Polygon><outerBoundaryIs><LinearRing><coordinates>15.0209420455054,56.9307094309608 15.0214683187067,56.9306768123034 15.0215340263808,56.9306772243564 15.0215342140193,56.9306682461055 15.0217059710123,56.9303101133824 15.0217063477321,56.9302921501842 15.0217071027075,56.9302562388473 15.0217167570851,56.9301326663784 15.021734425227,56.9299065328106 15.0217520036749,56.929681777229 15.0217544544738,56.9295650507309 15.0217561369507,56.9294848823143 15.0217072232969,56.9293808175809 15.0217157275464,56.9293060444482 15.0217584056976,56.929207898237 15.0219510736834,56.9289866602977 15.0223008055461,56.9285192907923 15.0224929772315,56.9283923255101 15.0224764747206,56.9283876272728 15.0225240369697,56.9283095229877 15.0225895883992,56.9281899069468 15.0227374058136,56.9279667105338 15.0229750546461,56.927749702989 15.0229756195391,56.9277227631957 15.0229599494202,56.9277226648378 15.023064927137,56.9275814595854 15.023003132187,56.9275750353619 15.0229867280715,56.9275183519939 15.0229719122881,56.9274940739388 15.0230545274068,56.9274036515089 15.0230050670084,56.9273226089513 15.0228963579606,56.9273091209897 15.0226098142993,56.9273632072957 15.0224764146673,56.9273740376761 15.0223182984178,56.9273659612486 15.0221848538029,56.9273011436614 15.0220909641137,56.9272822483669 15.0219624974158,56.9272795694142 15.0217747813611,56.9273471451603 15.0217154564804,56.9272904197273 15.0216165935212,56.9272147883545 15.0215424500604,56.9271634694019 15.0214633769742,56.9271337639147 15.0212311543896,56.9271365051418 15.0210878676466,56.9271365293883 15.0208853119459,56.927177088801 15.0208792849674,56.9271772956261 15.0207487997404,56.9272724885297 15.0208553577766,56.9272963717371 15.0208002551793,56.9272960253338 15.0206350976424,56.9273398896225 15.0203193097709,56.9275175145545 15.0199553949696,56.9276409473892 15.0196917188169,56.9276841919221 15.0193800825799,56.9276642728269 15.0191658518637,56.9276988407567 15.0177949064003,56.928067380597 15.017794716345,56.92807635801 15.01779452629,56.9280853362594 15.0180387842486,56.9281856597371 15.0183958968718,56.9283854771161 15.0188360712669,56.9285409144629 15.0189814123567,56.9286585715334 15.0192684837152,56.9290644920065 15.0192681058359,56.9290824543638 15.0193173779674,56.9290827646939 15.019383446867,56.9290652155219 15.0197449219261,56.9290585108505 15.019989922061,56.9291229116419 15.0200701446986,56.9292132206518 15.0202098292901,56.9296002539352 15.0201724446896,56.9298155439942 15.0200706889422,56.9299675693078 15.0198881638309,56.9300562260776 15.0196089824857,56.9300544705075 15.0195925631151,56.9300543668251 15.019438719358,56.930340770191 15.0194381534038,56.9303677041015 15.0194709939488,56.9303679106673 15.0198120931162,56.9305496654065 15.0202698507908,56.9306513267891 15.0206466274227,56.9306985900933 15.0209420455054,56.9307094309608</coordinates></LinearRing></outerBoundaryIs></Polygon></MultiGeometry>
  </Placemark>
  <Placemark>
	<Style><LineStyle><color>ff0000ff</color></LineStyle><PolyStyle><fill>0</fill></PolyStyle></Style>
	<ExtendedData><SchemaData schemaUrl="#final_stands">
		<SimpleData name="TIDPUNKT">2022-09-12 17:21:00</SimpleData>
		<SimpleData name="RO">Götaland</SimpleData>
		<SimpleData name="LAN">Skåne län</SimpleData>
		<SimpleData name="AVDOID">1386376</SimpleData>
		<SimpleData name="N">6249693</SimpleData>
		<SimpleData name="E">452040</SimpleData>
		<SimpleData name="FIGNETTO">17.44000475</SimpleData>
		<SimpleData name="NVMALKL">PG</SimpleData>
		<SimpleData name="SI">G30</SimpleData>
		<SimpleData name="PROD_ALDER">33</SimpleData>
		<SimpleData name="HTSL">Gran</SimpleData>
		<SimpleData name="HTSL_ANDEL">0.871618</SimpleData>
		<SimpleData name="ANDEL_TALL">0</SimpleData>
		<SimpleData name="ANDEL_GRAN">0.871618</SimpleData>
		<SimpleData name="ANDEL_BJOR">0.128382</SimpleData>
		<SimpleData name="NPATG">G kval</SimpleData>
		<SimpleData name="PLANUAR">0</SimpleData>
	</SchemaData></ExtendedData>
      <MultiGeometry><Polygon><outerBoundaryIs><LinearRing><coordinates>14.2318766715585,56.3923608215659 14.232183477645,56.3923184531471 14.2327630298637,56.3923512954161 14.2328180384207,56.3921792355819 14.2327434044214,56.3920255942519 14.2326198501053,56.391880312377 14.2324112947321,56.3918327546343 14.2324116638878,56.3918237784423 14.2323792849999,56.3918233671829 14.2321549175758,56.391766627233 14.2319489438659,56.3916562286613 14.2318235426334,56.3915558344475 14.231622769294,56.3913197487685 14.2314642497625,56.3912369017802 14.231388139462,56.3911191635121 14.2314109929676,56.3909577787239 14.2313492025322,56.3908851403764 14.2313499444746,56.3908671813242 14.2313337735435,56.3908669756707 14.2292406232033,56.39018468263 14.2288724562994,56.3900812033042 14.228823914371,56.390080586019 14.2287305677665,56.3898631078619 14.2287142246658,56.3898606197743 14.2283678389443,56.3894598941598 14.2278442189053,56.3894928938933 14.2278453175055,56.3894663351341 14.2278471746845,56.3894214475873 14.227783200874,56.3894026647192 14.2276434793809,56.3892571791635 14.2273735470547,56.3891279899741 14.2271657555351,56.3890624711044 14.2270708801813,56.3890073704963 14.2270308681639,56.3888002745808 14.2269826937747,56.3887906803743 14.2269830658148,56.3887816975142 14.2269668837305,56.3887814912177 14.2268065265147,56.3887435249988 14.2265479493352,56.3887312439005 14.2263548566133,56.3887018405553 14.2263397893609,56.3886746989811 14.2265071977941,56.3885421060125 14.2262478913866,56.3885477825629 14.2261357082925,56.388519404104 14.2261195263234,56.3885191976981 14.2261033458638,56.3885189912986 14.2258700565683,56.3886777004709 14.2254624958042,56.3887443587731 14.2251189050912,56.3888298000029 14.225118532746,56.3888387761625 14.2251181604007,56.388847752322 14.227566467434,56.3895526003935 14.2277441383973,56.389563849262 14.2277595894204,56.3895820078694 14.2277757718494,56.3895822140634 14.2277742863069,56.3896181254389 14.2277208985145,56.3897342103743 14.227720155028,56.3897521627106 14.2277039725273,56.3897519565091 14.2276410878786,56.389706244904 14.2275119892359,56.3896956205936 14.2226474163201,56.3882952630154 14.2204680477181,56.3877464512785 14.2203794161757,56.3877077677678 14.2203641624131,56.3877136831981 14.2202241700133,56.3877702746134 14.2201490262894,56.3877782944479 14.2200777778907,56.3877863638381 14.2199776905371,56.3878569430995 14.2200187704635,56.3880371068433 14.2204625009955,56.3890487736738 14.2208251773247,56.3896731792084 14.2211430477365,56.3902071809545 14.2211569935105,56.390261251583 14.2211608521456,56.3902702819152 14.2212375321159,56.3902712621394 14.2218676203097,56.3903062643027 14.2219647165338,56.3903075043779 14.2220456541805,56.3903085384245 14.2240484712793,56.3904329146691 14.2256602668695,56.3904725094549 14.2263294200529,56.3904889415988 14.2268120022864,56.3905669502558 14.2268116303189,56.390575926419 14.2268105159244,56.3906028549188 14.2268555829924,56.3907585447753 14.2269315005161,56.3908232723101 14.2272104634604,56.3908638074133 14.2274633356697,56.3908110675836 14.2276475283705,56.3906958241992 14.2279448739333,56.3905192104515 14.228260363519,56.3904036730394 14.2282768147561,56.3903879948687 14.2282771863752,56.3903790186999 14.2283007396285,56.3903793183835 14.2283095519177,56.3903794309517 14.2284187587113,56.3904796234388 14.2284349415421,56.3904798287106 14.2284345699573,56.3904888048798 14.2284823873338,56.3905073756083 14.2284822447613,56.3905108456196 14.2284820172692,56.390516351787 14.2285143829463,56.3905167631493 14.2286702935876,56.3906624604782 14.2301343331501,56.3916780879884 14.2301335922778,56.3916960395086 14.2301497756189,56.3916962453944 14.2308886129259,56.392235578348 14.2310419455522,56.3924441126412 14.231235677219,56.3928507650075 14.2312518610571,56.3928509707508 14.231252232142,56.392841987882 14.2315198272467,56.3927522490031 14.2316993049849,56.3925810662426 14.2318766715585,56.3923608215659</coordinates></LinearRing></outerBoundaryIs></Polygon><Polygon><outerBoundaryIs><LinearRing><coordinates>14.2231553681922,56.3861999450927 14.2232697637714,56.3861744633405 14.2234142757752,56.3862032510533 14.2236110999894,56.3861428907955 14.2239193179053,56.3861288628752 14.2241179796833,56.3860236141664 14.2241717457983,56.3858985478747 14.2245616213394,56.3858675918324 14.2248157126043,56.3859876052201 14.225023855709,56.3860441510015 14.2251713666819,56.3860011216267 14.2253056611404,56.3858860694686 14.2254531727106,56.3858430389272 14.2254855328604,56.385843451897 14.225517894537,56.3858438640306 14.2258276086222,56.3857939209044 14.2260085957629,56.3857243673757 14.2260089678618,56.3857153912083 14.2260093399606,56.385706415041 14.2258512266482,56.3856145780315 14.2253077073555,56.3854459730442 14.2250811418933,56.385443083982 14.2244548405109,56.3853183299187 14.2240039709534,56.3852586847611 14.2239716097943,56.3852582722339 14.2239392486515,56.3852578588618 14.2237111969155,56.3852908719612 14.223662655149,56.3852902526339 14.2235655595737,56.3852890130113 14.22343571959,56.3852963359009 14.2230225907748,56.3854976554106 14.2225702192314,56.385473908767 14.222301075229,56.3853267570973 14.2221941357347,56.385172695597 14.2221945087241,56.3851637194427 14.2221783040732,56.3851635123742 14.2220702583909,56.3850363868352 14.222054077925,56.3850361799029 14.2220537049058,56.3850451560568 14.2216781522671,56.3851211911562 14.2216084114146,56.3851241615814 14.2216130464409,56.3851293468226 14.2222783421222,56.3858743737406 14.2207013295264,56.3875877521384 14.2206150641572,56.3876180891872 14.2206189175785,56.3876226285896 14.2230380632121,56.3882463595428 14.2230866207745,56.3882469800367 14.2230907174817,56.3881482289356 14.223161044549,56.3880143937895 14.223186538962,56.3877901724205 14.2232907163845,56.3876208377604 14.223506685817,56.3874888692182 14.2237712118773,56.3873575121588 14.2238231192643,56.3872773335422 14.2238238630175,56.3872593812177 14.2238246082792,56.3872414289034 14.2238422788209,56.3872057242752 14.2235731177538,56.3870585745234 14.2233569726363,56.3868043180558 14.2232055654349,56.3865508867606 14.2232059382012,56.3865419106037 14.2232066837348,56.3865239582919 14.2230387248139,56.3862792969945 14.2231553681922,56.3861999450927</coordinates></LinearRing></outerBoundaryIs></Polygon><Polygon><outerBoundaryIs><LinearRing><coordinates>14.230370349707,56.3898846761646 14.2303541671326,56.3898844703096 14.229847255175,56.3900037789582 14.2296154682955,56.390126577135 14.2296147270637,56.3901445361861 14.2296143557619,56.3901535123602 14.2312124508875,56.3906678361314 14.2312448167119,56.3906682476188 14.2312451892805,56.3906592647553 14.2312967129906,56.3905880658856 14.2312838656018,56.3905070611274 14.2313658804616,56.3904811603293 14.2314711658054,56.3902848920747 14.2314722770346,56.3902579568291 14.2314560822271,56.3902577510427 14.2312317253592,56.3902010102737 14.2311063051438,56.3901006143342 14.2306884864961,56.3900234517236 14.2303865202138,56.3898848819435 14.230370349707,56.3898846761646</coordinates></LinearRing></outerBoundaryIs></Polygon></MultiGeometry>
  </Placemark>
  <Placemark>
	<Style><LineStyle><color>ff0000ff</color></LineStyle><PolyStyle><fill>0</fill></PolyStyle></Style>
	<ExtendedData><SchemaData schemaUrl="#final_stands">
		<SimpleData name="TIDPUNKT">2022-09-12 17:21:00</SimpleData>
		<SimpleData name="RO">Götaland</SimpleData>
		<SimpleData name="LAN">Kronobergs län</SimpleData>
		<SimpleData name="AVDOID">1433682</SimpleData>
		<SimpleData name="N">6323950</SimpleData>
		<SimpleData name="E">496521</SimpleData>
		<SimpleData name="FIGNETTO">5.69454183</SimpleData>
		<SimpleData name="NVMALKL">PG</SimpleData>
		<SimpleData name="SI">G32</SimpleData>
		<SimpleData name="PROD_ALDER">29</SimpleData>
		<SimpleData name="HTSL">Gran</SimpleData>
		<SimpleData name="HTSL_ANDEL">0.976132</SimpleData>
		<SimpleData name="ANDEL_TALL">0</SimpleData>
		<SimpleData name="ANDEL_GRAN">0.976132</SimpleData>
		<SimpleData name="ANDEL_BJOR">0.023868</SimpleData>
		<SimpleData name="NPATG">G kval</SimpleData>
		<SimpleData name="PLANUAR">0</SimpleData>
	</SchemaData></ExtendedData>
      <MultiGeometry><Polygon><outerBoundaryIs><LinearRing><coordinates>14.9462167459932,57.0601712605909 14.9460890236054,57.060085069793 14.9460333361015,57.0600469885307 14.9459895436966,57.060017037864 14.9458902545668,57.0599490034265 14.9456812299703,57.059808370909 14.9456326103439,57.0597721105584 14.9456297394627,57.0597695918494 14.9450026026089,57.059219999826 14.9445841370361,57.0587860778814 14.9445745900129,57.0587762506114 14.9444523711031,57.0587830845868 14.9439421309136,57.0587526302116 14.9436628241794,57.0587147789537 14.9434173151925,57.0586412368482 14.9430919007542,57.0584593685408 14.9429957370507,57.0583419460621 14.9426221489015,57.0581058508848 14.9422660841825,57.0578249737084 14.9421707605906,57.0576716262719 14.9420414420762,57.0575629599617 14.9419632224317,57.0573827865561 14.9419657259698,57.0572750295086 14.9419162848576,57.0572746886747 14.9415712840952,57.0572274000545 14.9412926141433,57.0571626029901 14.9412274885686,57.0571710050053 14.9412417219715,57.0572848849273 14.941390685396,57.0574010509057 14.9410563293903,57.0577491835193 14.9408002636356,57.0579889958414 14.9404021786576,57.0582093902372 14.9399758539613,57.0583214126106 14.9398125189172,57.058309724975 14.93972041374,57.0581703650971 14.9396283532154,57.058003916279 14.9394652952256,57.0578219526669 14.9393519353048,57.0576516230242 14.9390961585549,57.0577095470637 14.9386839127733,57.057898970755 14.9387688210636,57.0580925065032 14.938548374183,57.0582588022394 14.938377661012,57.0584135144416 14.9385406827701,57.0586148285216 14.9385379241828,57.0586199658411 14.9389229796709,57.058421600724 14.9392711316426,57.058334193303 14.9395512694522,57.0583361317328 14.9398958619577,57.0584013876374 14.9403370144793,57.0585661004261 14.940612976382,57.0587476403917 14.9412742110792,57.0593719317731 14.9413080068294,57.0593884629755 14.9414045779032,57.0594356982825 14.9414584465724,57.0594443199868 14.941665683828,57.0594774892033 14.9418151056886,57.0595014047255 14.9428182432671,57.0595981367203 14.9429819960038,57.0596441665628 14.9431123789853,57.0597079379915 14.9431119614843,57.0597258997276 14.943144915703,57.0597261271924 14.9432095871462,57.0597804597802 14.9432090689086,57.0597829644597 14.9431910265417,57.0598701488794 14.9430566825031,57.0599769977025 14.9430379142023,57.060075664717 14.9431023758017,57.060138981152 14.9431009175885,57.0602018442941 14.9431668268691,57.0602022983846 14.9440581833113,57.0601455616911 14.9446683469321,57.0601317937152 14.9446101665083,57.0605086178424 14.94516236988,57.0605411108605 14.9451372573768,57.0605230534443 14.9455177432196,57.0604628078614 14.945617488183,57.0604211938203 14.9462167459932,57.0601712605909</coordinates></LinearRing></outerBoundaryIs></Polygon></MultiGeometry>
  </Placemark>
  <Placemark>
	<Style><LineStyle><color>ff0000ff</color></LineStyle><PolyStyle><fill>0</fill></PolyStyle></Style>
	<ExtendedData><SchemaData schemaUrl="#final_stands">
		<SimpleData name="TIDPUNKT">2022-09-12 17:21:00</SimpleData>
		<SimpleData name="RO">Götaland</SimpleData>
		<SimpleData name="LAN">Skåne län</SimpleData>
		<SimpleData name="AVDOID">1386249</SimpleData>
		<SimpleData name="N">6250976</SimpleData>
		<SimpleData name="E">454498</SimpleData>
		<SimpleData name="FIGNETTO">3.85861503</SimpleData>
		<SimpleData name="NVMALKL">PG</SimpleData>
		<SimpleData name="SI">G27</SimpleData>
		<SimpleData name="PROD_ALDER">39</SimpleData>
		<SimpleData name="HTSL">Gran</SimpleData>
		<SimpleData name="HTSL_ANDEL">0.887991</SimpleData>
		<SimpleData name="ANDEL_TALL">0</SimpleData>
		<SimpleData name="ANDEL_GRAN">0.887991</SimpleData>
		<SimpleData name="ANDEL_BJOR">0.112009</SimpleData>
		<SimpleData name="NPATG">G kval</SimpleData>
		<SimpleData name="PLANUAR">0</SimpleData>
	</SchemaData></ExtendedData>
      <MultiGeometry><Polygon><outerBoundaryIs><LinearRing><coordinates>14.2638907242487,56.4018839384089 14.2642678322045,56.4017810852966 14.2643001882014,56.4017722602746 14.2644991856852,56.4016579708025 14.264580498427,56.4016500007912 14.2648731126147,56.4016594393111 14.26503345389,56.4016646108957 14.2653410583163,56.4016684337706 14.2653504900593,56.4014350235226 14.2653142618503,56.4011291873374 14.2653327623213,56.4006713363877 14.2653165749273,56.4006711359188 14.2652665500849,56.4007064370734 14.2651690504635,56.4007142128997 14.2648401745985,56.4008358704213 14.2641875224999,56.400953507457 14.263603963049,56.4009642116529 14.2634622589114,56.4008636469086 14.2634714821578,56.4002350260384 14.2630834665731,56.3998170222437 14.2630672795721,56.399816820645 14.2630348935032,56.3998164173705 14.2599722008899,56.4014489152306 14.2599714736825,56.4014668744666 14.2599703808014,56.4014938032672 14.26004587134,56.4016294766139 14.2601239110063,56.4017023018121 14.2602131004061,56.4017471536136 14.2603620318432,56.4018220473353 14.2609179464086,56.4016942371262 14.2612903138059,56.4016988767912 14.2614183618267,56.4017363948124 14.2615284385634,56.4018186066984 14.2617558202594,56.4018034776494 14.2623184671685,56.4019092853893 14.2625256755311,56.4019926981958 14.2624514620638,56.402225308072 14.2624489174074,56.4022881486955 14.2626593861763,56.4022907688631 14.2629695497253,56.4022317570639 14.2630099191704,56.4020346553934 14.2635327266182,56.4019243961825 14.2638907242487,56.4018839384089</coordinates></LinearRing></outerBoundaryIs><innerBoundaryIs><LinearRing><coordinates>14.2611909898899,56.4009521334317 14.2611906273987,56.4009611097132 14.261889883143,56.4012931746924 14.2622380499121,56.4014951145106 14.2622369586301,56.4015220433353 14.2619923009786,56.4015639078921 14.2616714077782,56.4014880579772 14.2610245435292,56.4014620319089 14.2605852336724,56.4015104488594 14.260464090527,56.4013023540043 14.2605494062796,56.4011956342727 14.2611586028648,56.4009517305013 14.2611909898899,56.4009521334317</coordinates></LinearRing></innerBoundaryIs></Polygon></MultiGeometry>
  </Placemark>
  <Placemark>
	<Style><LineStyle><color>ff0000ff</color></LineStyle><PolyStyle><fill>0</fill></PolyStyle></Style>
	<ExtendedData><SchemaData schemaUrl="#final_stands">
		<SimpleData name="TIDPUNKT">2022-09-12 17:21:00</SimpleData>
		<SimpleData name="RO">Götaland</SimpleData>
		<SimpleData name="LAN">Kronobergs län</SimpleData>
		<SimpleData name="AVDOID">1446114</SimpleData>
		<SimpleData name="N">6286743</SimpleData>
		<SimpleData name="E">503816</SimpleData>
		<SimpleData name="FIGNETTO">11.91098986</SimpleData>
		<SimpleData name="NVMALKL">PG</SimpleData>
		<SimpleData name="SI">G27</SimpleData>
		<SimpleData name="PROD_ALDER">31</SimpleData>
		<SimpleData name="HTSL">Gran</SimpleData>
		<SimpleData name="HTSL_ANDEL">0.938355</SimpleData>
		<SimpleData name="ANDEL_TALL">0.032188</SimpleData>
		<SimpleData name="ANDEL_GRAN">0.938355</SimpleData>
		<SimpleData name="ANDEL_BJOR">0.029457</SimpleData>
		<SimpleData name="NPATG">G kval</SimpleData>
		<SimpleData name="PLANUAR">0</SimpleData>
	</SchemaData></ExtendedData>
      <MultiGeometry><Polygon><outerBoundaryIs><LinearRing><coordinates>15.0610631184531,56.7278004744951 15.0610645392385,56.7277286414981 15.0610996916671,56.7276031200142 15.0608120994315,56.7272781021783 15.0607819117696,56.7271521901042 15.060913822895,56.7270901161435 15.0610775093155,56.7270731357598 15.0612253962062,56.7270291160938 15.0616635317322,56.7270003531248 15.0619777735932,56.7269797276766 15.0622570349055,56.7269005673722 15.0622591627001,56.7267928676239 15.062261114897,56.7266940385448 15.0620020903148,56.7265757467798 15.0617418371414,56.7265203097197 15.0617423698068,56.7264933680493 15.061875861064,56.7263504747527 15.0620743484415,56.7262259352163 15.0625511770227,56.726067132452 15.062895578408,56.7259973382087 15.063269452982,56.7260893748077 15.0632692762964,56.7260983525778 15.0633019388021,56.7260985476786 15.0634480361192,56.7261443214893 15.0636110215338,56.7261632588934 15.063824770291,56.7260926836289 15.0638410901283,56.7260927806953 15.0638412666779,56.726083802088 15.0639234547797,56.7260573465113 15.0639135067871,56.7257339894347 15.0638183389391,56.7255897317971 15.0638046630707,56.7254549463988 15.0638545409841,56.7254103395169 15.06387265481,56.7253206404355 15.0640047187626,56.7252495854216 15.0642511248362,56.7251792034881 15.064300825422,56.725143575035 15.0644105926566,56.7251466442387 15.0647089483208,56.7251549896505 15.0654133504999,56.7250514062694 15.0658710077946,56.7250361667684 15.0658715375003,56.7250092317685 15.0658552059502,56.7250091341379 15.0658280040326,56.7247305717692 15.0656857926724,56.7244872495043 15.0657199262169,56.7243927876248 15.0656606292534,56.7243793339411 15.0656165356218,56.7238222697171 15.0656094994721,56.7237388504035 15.0655213296511,56.7237139441724 15.0652972722175,56.72347911499 15.0652340707386,56.7233709732565 15.0646862298837,56.7229905329585 15.0646049200987,56.7229720842745 15.0646050979736,56.722963105661 15.0645560953457,56.7229628139426 15.0645559189805,56.7229717925562 15.0645229170968,56.7229895616978 15.0644531634189,56.7232136583795 15.0643226982755,56.7232039021921 15.0642241752496,56.7232302602029 15.0632925857275,56.7232606282938 15.0628995726834,56.723312168206 15.0626219353083,56.7233105124565 15.0621172577227,56.7232266784548 15.0616933462238,56.7231882230214 15.0613993912377,56.7231864663645 15.0611533609028,56.723238878765 15.0610708226072,56.7232832897426 15.0604995723394,56.7232619139309 15.0602645689216,56.7233105432421 15.060398983459,56.7236474793653 15.0608051530117,56.7245838877027 15.0610226032199,56.7251509701537 15.0600420990684,56.7251720489342 15.0599094695905,56.7252700347385 15.0591406887125,56.726145516557 15.0588555459273,56.7265209955072 15.0588512691204,56.7265267572981 15.0589959746734,56.7266026653361 15.0590904143587,56.7267828393626 15.0589906297974,56.7268720484477 15.0589705563809,56.7270605222707 15.0592000620964,56.7278432059642 15.0592637882364,56.7279244157197 15.0592636105863,56.7279333934825 15.0594106118755,56.7279342748267 15.0601149031665,56.7278397058751 15.0609162949045,56.7277906173342 15.0610141217366,56.7278001813807 15.0610631184531,56.7278004744951</coordinates></LinearRing></outerBoundaryIs></Polygon></MultiGeometry>
  </Placemark>
</Folder>
</Document></kml>
