<?xml version="1.0" encoding="utf-8" ?>
<kml xmlns="http://www.opengis.net/kml/2.2">
<Document id="root_doc">
<Schema name="1386376" id="1386376">
	<SimpleField name="comments" type="string"></SimpleField>
	<SimpleField name="basal" type="float"></SimpleField>
	<SimpleField name="other" type="float"></SimpleField>
	<SimpleField name="ratio" type="float"></SimpleField>
	<SimpleField name="tmp id" type="float"></SimpleField>
	<SimpleField name="stand" type="float"></SimpleField>
	<SimpleField name="selected" type="string"></SimpleField>
	<SimpleField name="new_id" type="string"></SimpleField>
</Schema>
<Folder><name>1386376</name>
  <Placemark>
	<ExtendedData><SchemaData schemaUrl="#1386376">
		<SimpleData name="comments">good</SimpleData>
		<SimpleData name="basal">31</SimpleData>
		<SimpleData name="other">4</SimpleData>
		<SimpleData name="ratio">0.129032258064516</SimpleData>
		<SimpleData name="tmp id">1</SimpleData>
		<SimpleData name="selected">No</SimpleData>
	</SchemaData></ExtendedData>
      <Point><coordinates>14.2223436983981,56.3888925070504</coordinates></Point>
  </Placemark>
  <Placemark>
	<ExtendedData><SchemaData schemaUrl="#1386376">
		<SimpleData name="comments">good</SimpleData>
		<SimpleData name="basal">35</SimpleData>
		<SimpleData name="other">5</SimpleData>
		<SimpleData name="ratio">0.142857142857143</SimpleData>
		<SimpleData name="tmp id">2</SimpleData>
		<SimpleData name="stand">1386376</SimpleData>
		<SimpleData name="selected">Yes</SimpleData>
		<SimpleData name="new_id">B5</SimpleData>
	</SchemaData></ExtendedData>
      <Point><coordinates>14.2219669905346,56.3890967923754</coordinates></Point>
  </Placemark>
  <Placemark>
	<ExtendedData><SchemaData schemaUrl="#1386376">
		<SimpleData name="comments">good</SimpleData>
		<SimpleData name="basal">28</SimpleData>
		<SimpleData name="other">5</SimpleData>
		<SimpleData name="ratio">0.178571428571429</SimpleData>
		<SimpleData name="tmp id">3</SimpleData>
		<SimpleData name="selected">No</SimpleData>
	</SchemaData></ExtendedData>
      <Point><coordinates>14.2217350509218,56.3885562553285</coordinates></Point>
  </Placemark>
  <Placemark>
	<ExtendedData><SchemaData schemaUrl="#1386376">
		<SimpleData name="comments">good</SimpleData>
		<SimpleData name="basal">32</SimpleData>
		<SimpleData name="other">1</SimpleData>
		<SimpleData name="ratio">0.03125</SimpleData>
		<SimpleData name="tmp id">4</SimpleData>
		<SimpleData name="stand">1386376</SimpleData>
		<SimpleData name="selected">Yes</SimpleData>
		<SimpleData name="new_id">B1</SimpleData>
	</SchemaData></ExtendedData>
      <Point><coordinates>14.2214716440662,56.387970596758</coordinates></Point>
  </Placemark>
  <Placemark>
	<ExtendedData><SchemaData schemaUrl="#1386376">
		<SimpleData name="comments">good</SimpleData>
		<SimpleData name="basal">32</SimpleData>
		<SimpleData name="other">1</SimpleData>
		<SimpleData name="ratio">0.03125</SimpleData>
		<SimpleData name="tmp id">5</SimpleData>
		<SimpleData name="stand">1386376</SimpleData>
		<SimpleData name="selected">Yes</SimpleData>
		<SimpleData name="new_id">B6</SimpleData>
	</SchemaData></ExtendedData>
      <Point><coordinates>14.2209926917469,56.3892164621174</coordinates></Point>
  </Placemark>
  <Placemark>
	<ExtendedData><SchemaData schemaUrl="#1386376">
		<SimpleData name="comments">good</SimpleData>
		<SimpleData name="basal">29</SimpleData>
		<SimpleData name="other">2</SimpleData>
		<SimpleData name="ratio">0.0689655172413793</SimpleData>
		<SimpleData name="tmp id">6</SimpleData>
		<SimpleData name="stand">1386376</SimpleData>
		<SimpleData name="selected">Yes</SimpleData>
		<SimpleData name="new_id">B7</SimpleData>
	</SchemaData></ExtendedData>
      <Point><coordinates>14.22192826426,56.3902016669008</coordinates></Point>
  </Placemark>
  <Placemark>
	<ExtendedData><SchemaData schemaUrl="#1386376">
		<SimpleData name="comments">Rocky / wet</SimpleData>
		<SimpleData name="basal">30</SimpleData>
		<SimpleData name="other">5</SimpleData>
		<SimpleData name="ratio">0.166666666666667</SimpleData>
		<SimpleData name="tmp id">7</SimpleData>
		<SimpleData name="selected">No</SimpleData>
	</SchemaData></ExtendedData>
      <Point><coordinates>14.222998846386,56.3901275164695</coordinates></Point>
  </Placemark>
  <Placemark>
	<ExtendedData><SchemaData schemaUrl="#1386376">
		<SimpleData name="comments">good</SimpleData>
		<SimpleData name="basal">29</SimpleData>
		<SimpleData name="other">2</SimpleData>
		<SimpleData name="ratio">0.0689655172413793</SimpleData>
		<SimpleData name="tmp id">8</SimpleData>
		<SimpleData name="stand">1386376</SimpleData>
		<SimpleData name="selected">Yes</SimpleData>
		<SimpleData name="new_id">B8</SimpleData>
	</SchemaData></ExtendedData>
      <Point><coordinates>14.2265903473866,56.3903476283895</coordinates></Point>
  </Placemark>
  <Placemark>
	<ExtendedData><SchemaData schemaUrl="#1386376">
		<SimpleData name="comments">good</SimpleData>
		<SimpleData name="basal">31</SimpleData>
		<SimpleData name="other">0</SimpleData>
		<SimpleData name="ratio">0</SimpleData>
		<SimpleData name="tmp id">9</SimpleData>
		<SimpleData name="stand">1386376</SimpleData>
		<SimpleData name="selected">Yes</SimpleData>
		<SimpleData name="new_id">B9</SimpleData>
	</SchemaData></ExtendedData>
      <Point><coordinates>14.2284547128904,56.3902693937001</coordinates></Point>
  </Placemark>
  <Placemark>
	<ExtendedData><SchemaData schemaUrl="#1386376">
		<SimpleData name="comments">preferably over Nr 7, either 7 or 10</SimpleData>
		<SimpleData name="basal">32</SimpleData>
		<SimpleData name="other">7</SimpleData>
		<SimpleData name="ratio">0.21875</SimpleData>
		<SimpleData name="tmp id">10</SimpleData>
		<SimpleData name="stand">1386376</SimpleData>
		<SimpleData name="selected">Yes</SimpleData>
		<SimpleData name="new_id">B10</SimpleData>
	</SchemaData></ExtendedData>
      <Point><coordinates>14.2232090281812,56.3901468024663</coordinates></Point>
  </Placemark>
  <Placemark>
	<ExtendedData><SchemaData schemaUrl="#1386376">
		<SimpleData name="comments">either 11 or 6 if possible keep both</SimpleData>
		<SimpleData name="basal">35</SimpleData>
		<SimpleData name="other">4</SimpleData>
		<SimpleData name="ratio">0.114285714285714</SimpleData>
		<SimpleData name="tmp id">11</SimpleData>
		<SimpleData name="selected">No</SimpleData>
	</SchemaData></ExtendedData>
      <Point><coordinates>14.2223699499992,56.3899888044302</coordinates></Point>
  </Placemark>
  <Placemark>
	<ExtendedData><SchemaData schemaUrl="#1386376">
		<SimpleData name="comments">good</SimpleData>
		<SimpleData name="basal">30</SimpleData>
		<SimpleData name="other">1</SimpleData>
		<SimpleData name="ratio">0.0333333333333333</SimpleData>
		<SimpleData name="tmp id">12</SimpleData>
		<SimpleData name="stand">1386376</SimpleData>
		<SimpleData name="selected">Yes</SimpleData>
		<SimpleData name="new_id">B11</SimpleData>
	</SchemaData></ExtendedData>
      <Point><coordinates>14.2258300689237,56.3894983239638</coordinates></Point>
  </Placemark>
  <Placemark>
	<ExtendedData><SchemaData schemaUrl="#1386376">
		<SimpleData name="comments">close to road</SimpleData>
		<SimpleData name="basal">35</SimpleData>
		<SimpleData name="other">0</SimpleData>
		<SimpleData name="ratio">0</SimpleData>
		<SimpleData name="tmp id">13</SimpleData>
		<SimpleData name="selected">No</SimpleData>
	</SchemaData></ExtendedData>
      <Point><coordinates>14.2263621596287,56.3896184452405</coordinates></Point>
  </Placemark>
  <Placemark>
	<ExtendedData><SchemaData schemaUrl="#1386376">
		<SimpleData name="comments">bit open, else good</SimpleData>
		<SimpleData name="basal">29</SimpleData>
		<SimpleData name="other">0</SimpleData>
		<SimpleData name="ratio">0</SimpleData>
		<SimpleData name="tmp id">14</SimpleData>
		<SimpleData name="selected">No</SimpleData>
	</SchemaData></ExtendedData>
      <Point><coordinates>14.2271934198796,56.3893630717573</coordinates></Point>
  </Placemark>
  <Placemark>
	<ExtendedData><SchemaData schemaUrl="#1386376">
		<SimpleData name="comments">close to cc</SimpleData>
		<SimpleData name="basal">28</SimpleData>
		<SimpleData name="other">1</SimpleData>
		<SimpleData name="ratio">0.0357142857142857</SimpleData>
		<SimpleData name="tmp id">15</SimpleData>
		<SimpleData name="selected">No</SimpleData>
	</SchemaData></ExtendedData>
      <Point><coordinates>14.225760756019,56.3889228709628</coordinates></Point>
  </Placemark>
  <Placemark>
	<ExtendedData><SchemaData schemaUrl="#1386376">
		<SimpleData name="comments">good</SimpleData>
		<SimpleData name="basal">36</SimpleData>
		<SimpleData name="other">1</SimpleData>
		<SimpleData name="ratio">0.0277777777777778</SimpleData>
		<SimpleData name="tmp id">16</SimpleData>
		<SimpleData name="stand">1386376</SimpleData>
		<SimpleData name="selected">Yes</SimpleData>
		<SimpleData name="new_id">B12</SimpleData>
	</SchemaData></ExtendedData>
      <Point><coordinates>14.2262404265752,56.3892313440754</coordinates></Point>
  </Placemark>
  <Placemark>
	<ExtendedData><SchemaData schemaUrl="#1386376">
		<SimpleData name="comments">good</SimpleData>
		<SimpleData name="basal">32</SimpleData>
		<SimpleData name="other">3</SimpleData>
		<SimpleData name="ratio">0.09375</SimpleData>
		<SimpleData name="tmp id">17</SimpleData>
		<SimpleData name="stand">1386376</SimpleData>
		<SimpleData name="selected">Yes</SimpleData>
		<SimpleData name="new_id">B2</SimpleData>
	</SchemaData></ExtendedData>
      <Point><coordinates>14.2220069963239,56.3879290327967</coordinates></Point>
  </Placemark>
  <Placemark>
	<ExtendedData><SchemaData schemaUrl="#1386376">
		<SimpleData name="comments">good</SimpleData>
		<SimpleData name="basal">35</SimpleData>
		<SimpleData name="other">5</SimpleData>
		<SimpleData name="ratio">0.142857142857143</SimpleData>
		<SimpleData name="tmp id">18</SimpleData>
		<SimpleData name="stand">1386376</SimpleData>
		<SimpleData name="selected">Yes</SimpleData>
		<SimpleData name="new_id">B3</SimpleData>
	</SchemaData></ExtendedData>
      <Point><coordinates>14.22285681326,56.3859667120855</coordinates></Point>
  </Placemark>
  <Placemark>
	<ExtendedData><SchemaData schemaUrl="#1386376">
		<SimpleData name="comments">good</SimpleData>
		<SimpleData name="basal">36</SimpleData>
		<SimpleData name="other">1</SimpleData>
		<SimpleData name="ratio">0.0277777777777778</SimpleData>
		<SimpleData name="tmp id">19</SimpleData>
		<SimpleData name="selected">No</SimpleData>
	</SchemaData></ExtendedData>
      <Point><coordinates>14.2232518735417,56.3856547226355</coordinates></Point>
  </Placemark>
  <Placemark>
	<ExtendedData><SchemaData schemaUrl="#1386376">
		<SimpleData name="comments">good</SimpleData>
		<SimpleData name="basal">27</SimpleData>
		<SimpleData name="other">1</SimpleData>
		<SimpleData name="ratio">0.037037037037037</SimpleData>
		<SimpleData name="tmp id">20</SimpleData>
		<SimpleData name="stand">1386376</SimpleData>
		<SimpleData name="selected">Yes</SimpleData>
		<SimpleData name="new_id">B4</SimpleData>
	</SchemaData></ExtendedData>
      <Point><coordinates>14.2245486770784,56.3855999453261</coordinates></Point>
  </Placemark>
  <Placemark>
	<ExtendedData><SchemaData schemaUrl="#1386376">
		<SimpleData name="comments">good little rocky</SimpleData>
		<SimpleData name="basal">28</SimpleData>
		<SimpleData name="other">3</SimpleData>
		<SimpleData name="ratio">0.107142857142857</SimpleData>
		<SimpleData name="tmp id">21</SimpleData>
		<SimpleData name="selected">No</SimpleData>
	</SchemaData></ExtendedData>
      <Point><coordinates>14.2220946673405,56.386806495485</coordinates></Point>
  </Placemark>
</Folder>
</Document></kml>
